COMMENT,ORIGINATOR,NORAD_CAT_ID,OBJECT_NAME,OBJECT_TYPE,CLASSIFICATION_TYPE,INTLDES,EPOCH,EPOCH_MICROSECONDS,MEAN_MOTION,ECCENTRICITY,INCLINATION,RA_OF_ASC_NODE,ARG_OF_PERICENTER,MEAN_ANOMALY,EPHEMERIS_TYPE,ELEMENT_SET_NO,REV_AT_EPOCH,BSTAR,MEAN_MOTION_DOT,MEAN_MOTION_DDOT,FILE,TLE_LINE0,TLE_LINE1,TLE_LINE2,OBJECT_ID,OBJECT_NUMBER,SEMIMAJOR_AXIS,PERIOD,APOGEE,PERIGEE
"GENERATED VIA SPACETRACK.ORG API","JSPOC","40046","AEROCUBE 6B","PAYLOAD","U","14033AN","2016-01-12 15:00:56","258496","14.74046153","0.0058521","97.9261","265.3479","165.9731","194.312","0","999","8400","0.00020391","1.326e-05","0","1979601","0 AEROCUBE 6B","1 40046U 14033AN  16012.62565114  .00001326  00000-0  20391-3 0  9995","2 40046  97.9261 265.3479 0058521 165.9731 194.3120 14.74046153 84006","2014-033AN","40046","7026.317","97.690","689.301","607.064"
"GENERATED VIA SPACETRACK.ORG API","JSPOC","16963","COSMOS 1780 (GLONASS)","PAYLOAD","U","86071C","2016-01-12 15:01:13","376064","2.13101185","0.0004563","64.0908","203.046","299.4739","265.2823","0","999","22816","0","9.3e-07","0","1979855","0 COSMOS 1780 (GLONASS)","1 16963U 86071C   16012.62584926 +.00000093 +00000-0 +00000-0 0  9991","2 16963 064.0908 203.0460 0004563 299.4739 265.2823 02.13101185228169","1986-071C","16963","25508.089","675.735","19141.593","19118.315"
"GENERATED VIA SPACETRACK.ORG API","JSPOC","11568","SL-12 R/B(2)","ROCKET BODY","U","75123F","2016-01-12 15:01:28","998912","1.00499812","0.0012211","11.0894","317.5404","106.653","306.9627","0","999","8372","0","1.45e-06","0","1979855","0 SL-12 R/B(2)","1 11568U 75123F   16012.62603008 +.00000145 +00000-0 +00000-0 0  9994","2 11568 011.0894 317.5404 0012211 106.6530 306.9627 01.00499812083725","1975-123F","11568","42100.928","1432.838","35774.203","35671.384"
"GENERATED VIA SPACETRACK.ORG API","JSPOC","21199","SL-6 R/B(2)","ROCKET BODY","U","91022D","2016-01-12 15:02:09","28032","2.05825324","0.695714","63.1652","199.9727","286.9666","266.5923","0","999","18640","-0.013303","1.111e-05","0","1979572","0 SL-6 R/B(2)","1 21199U 91022D   16012.62649338  .00001111  00000-0 -13303-1 0  9993","2 21199  63.1652 199.9727 6957140 286.9666 266.5923  2.05825324186409","1991-022D","21199","26105.737","699.622","37889.729","1565.475"
"GENERATED VIA SPACETRACK.ORG API","JSPOC","10934","COSMOS 1017","PAYLOAD","U","78056E","2016-01-12 15:02:10","104576","12.47559945","0.0020889","74.0267","68.0763","138.1306","29.9203","0","999","71227","0.00013548","4e-08","0","1979855","0 COSMOS 1017","1 10934U 78056E   16012.62650584 +.00000004 +00000-0 +13548-3 0  9997","2 10934 074.0267 068.0763 0020889 138.1306 029.9203 12.47559945712279","1978-056E","10934","7852.854","115.425","1491.123","1458.315"
"GENERATED VIA SPACETRACK.ORG API","JSPOC","21762","SL-12 R/B(2)","ROCKET BODY","U","91074D","2016-01-12 15:02:42","210816","0.99699816","0.0003055","14.956","14.9501","181.6831","201.5121","0","999","8170","0","7.8e-07","0","1979855","0 SL-12 R/B(2)","1 21762U 91074D   16012.62687744 +.00000078 +00000-0 +00000-0 0  9998","2 21762 014.9560 014.9501 0003055 181.6831 201.5121 00.99699816081701","1991-074D","21762","42325.841","1444.335","35960.637","35934.776"
"GENERATED VIA SPACETRACK.ORG API","JSPOC","5214","COSMOS 415","PAYLOAD","U","71041E","2016-01-12 15:04:01","464672","12.47437047","0.0032637","74.0157","88.6399","246.1227","265.9112","0","999","3500","0.00019335","1.2e-07","0","1979609","0 COSMOS 415","1 05214U 71041E   16012.62779473  .00000012  00000-0  19335-3 0  9997","2 05214  74.0157  88.6399 0032637 246.1227 265.9112 12.47437047 35009","1971-041E","5214","7853.370","115.436","1500.866","1449.604"
"GENERATED VIA SPACETRACK.ORG API","JSPOC","26477","RADUGA 1-5","PAYLOAD","U","00049A","2016-01-12 15:04:17","369184","1.00297336","0.0001875","11.1574","38.7968","203.9547","140.8463","0","999","5629","0","1.11e-06","0","1979533","0 RADUGA 1-5","1 26477U 00049A   16012.62797881  .00000111  00000-0  00000+0 0  9999","2 26477  11.1574  38.7968 0001875 203.9547 140.8463  1.00297336 56298","2000-049A","26477","42157.570","1435.731","35787.340","35771.531"
"GENERATED VIA SPACETRACK.ORG API","JSPOC","14135","ANIK C2 R/B(PAM-D)","ROCKET BODY","U","83059D","2016-01-12 15:04:58","296000","2.61675005","0.6990081","23.2877","56.1995","269.0673","17.2474","0","999","22043","0.001956","2.288e-05","0","1979855","0 ANIK C2 R/B(PAM-D)","1 14135U 83059D   16012.62845250 +.00002288 +00000-0 +19560-2 0  9994","2 14135 023.2877 056.1995 6990081 269.0673 017.2474 02.61675005220434","1983-059D","14135","22244.723","550.300","31415.830","317.346"
"GENERATED VIA SPACETRACK.ORG API","JSPOC","29092","YAOGAN 1","PAYLOAD","U","06015A","2016-01-12 15:05:09","930624","14.82569473","0.0001439","98.0026","17.4548","89.0118","45.3255","0","999","52508","4.7579e-05","3.29e-06","0","1979593","0 YAOGAN 1","1 29092U 06015A   16012.62858716  .00000329  00000-0  47579-4 0  9997","2 29092  98.0026  17.4548 0001439  89.0118  45.3255 14.82569473525085","2006-015A","29092","6999.362","97.128","622.234","620.220"
"GENERATED VIA SPACETRACK.ORG API","JSPOC","19789","COSMOS 1998","PAYLOAD","U","89009E","2016-01-12 15:05:19","832064","12.64841795","0.0016322","82.6098","242.3824","320.0665","39.9226","0","999","24252","0.0001312","3.5e-07","0","1979855","0 COSMOS 1998","1 19789U 89009E   16012.62870176 +.00000035 +00000-0 +13120-3 0  9995","2 19789 082.6098 242.3824 0016322 320.0665 039.9226 12.64841795242523","1989-009E","19789","7781.160","113.848","1415.725","1390.325"
"GENERATED VIA SPACETRACK.ORG API","JSPOC","38044","GLOBALSTAR M090","PAYLOAD","U","11080E","2016-01-12 15:05:28","392576","12.62268602","4.03e-05","51.9896","45.7392","159.4602","349.6931","0","999","18873","3.1868e-05","-9.8e-07","0","1979855","0 GLOBALSTAR M090","1 38044U 11080E   16012.62880084 -.00000098 +00000-0 +31868-4 0  9993","2 38044 051.9896 045.7392 0000403 159.4602 349.6931 12.62268602188730","2011-080E","38044","7791.731","114.080","1413.910","1413.282"
"GENERATED VIA SPACETRACK.ORG API","JSPOC","20262","SL-14 R/B","ROCKET BODY","U","89080C","2016-01-12 15:05:50","307936","12.48771741","0.1237757","82.5919","30.1151","5.6253","355.7358","0","999","19704","6.1655e-05","2.18e-06","0","1979855","0 SL-14 R/B","1 20262U 89080C   16012.62905449 +.00000218 +00000-0 +61655-4 0  9994","2 20262 082.5919 030.1151 1237757 005.6253 355.7358 12.48771741197041","1989-080C","20262","7847.773","115.313","2441.002","498.274"
"GENERATED VIA SPACETRACK.ORG API","JSPOC","19810","SL-6 R/B(2)","ROCKET BODY","U","89014D","2016-01-12 15:06:02","23776","2.07387675","0.6834283","63.5058","121.6926","280.8337","37.5097","0","999","20376","-0.046684","8.07e-06","0","1979565","0 SL-6 R/B(2)","1 19810U 89014D   16012.62919009  .00000807  00000-0 -46684-1 0  9992","2 19810  63.5058 121.6926 6834283 280.8337  37.5097  2.07387675203764","1989-014D","19810","25974.461","694.351","37348.007","1844.644"
"GENERATED VIA SPACETRACK.ORG API","JSPOC","8357","COSMOS 775","PAYLOAD","U","75097A","2016-01-12 15:06:09","600192","1.00259813","0.0007824","10.9675","316.3758","57.1713","77.7505","0","999","9357","0","-3.53e-06","0","1979855","0 COSMOS 775","1  8357U 75097A   16012.62927778 -.00000353 +00000-0 +00000-0 0  9991","2  8357 010.9675 316.3758 0007824 057.1713 077.7505 01.00259813093575","1975-097A","8357","42168.088","1436.268","35822.945","35756.961"
"GENERATED VIA SPACETRACK.ORG API","JSPOC","10061","GOES 2","PAYLOAD","U","77048A","2016-01-12 15:06:19","669248","0.99394064","0.0016377","13.902","333.3911","297.808","323.6901","0","999","8565","0","-7e-08","0","1979515","0 GOES 2","1 10061U 77048A   16012.62939432 -.00000007  00000-0  00000+0 0  9999","2 10061  13.9020 333.3911 0016377 297.8080 323.6901  0.99394064 85658","1977-048A","10061","42412.597","1448.778","36103.922","35965.003"
"GENERATED VIA SPACETRACK.ORG API","JSPOC","10953","GOES 3","PAYLOAD","U","78062A","2016-01-12 15:06:19","818720","1.00279829","0.0003218","13.9848","336.8708","204.1375","52.7667","0","999","9073","0","-1.13e-06","0","1979515","0 GOES 3","1 10953U 78062A   16012.62939605 -.00000113  00000-0  00000+0 0  9996","2 10953  13.9848 336.8708 0003218 204.1375  52.7667  1.00279829 90734","1978-062A","10953","42162.477","1435.981","35797.909","35770.774"
"GENERATED VIA SPACETRACK.ORG API","JSPOC","13624","GORIZONT 6","PAYLOAD","U","82103A","2016-01-12 15:06:19","558656","1.00380676","0.000417","14.0878","339.7026","204.7804","50.3074","0","999","8275","0","-1.34e-06","0","1979855","0 GORIZONT 6","1 13624U 82103A   16012.62939304 -.00000134 +00000-0 +00000-0 0  9995","2 13624 014.0878 339.7026 0004170 204.7804 050.3074 01.00380676082755","1982-103A","13624","42134.233","1434.539","35773.668","35738.528"
"GENERATED VIA SPACETRACK.ORG API","JSPOC","27465","COSMOS 2391","PAYLOAD","U","02036B","2016-01-12 15:06:21","451680","12.44870156","0.0025236","82.4798","204.245","308.2176","51.664","0","999","61419","3.1552e-05","1.4e-07","0","1979572","0 COSMOS 2391","1 27465U 02036B   16012.62941495  .00000014  00000-0  31552-4 0  9990","2 27465  82.4798 204.2450 0025236 308.2176  51.6640 12.44870156614197","2002-036B","27465","7864.162","115.674","1505.873","1466.181"
"GENERATED VIA SPACETRACK.ORG API","JSPOC","19908","COSMOS 2014","PAYLOAD","U","89025G","2016-01-12 15:06:21","634848","12.46238375","0.0011757","74.01","62.0865","60.025","109.3309","0","999","21935","0.00010461","-1e-08","0","1979855","0 COSMOS 2014","1 19908U 89025G   16012.62941707 -.00000001 +00000-0 +10461-3 0  9994","2 19908 074.0100 062.0865 0011757 060.0250 109.3309 12.46238375219358","1989-025G","19908","7858.405","115.547","1489.509","1471.031"
